[{"OBJECT_NAME":"ASTROCAST-0402","OBJECT_ID":"2023-001DE","EPOCH":"2026-03-09T19:21:31.190400","MEAN_MOTION":15.26734153,"ECCENTRICITY":0.00042092,"INCLINATION":97.5556,"RA_OF_ASC_NODE":160.6821,"ARG_OF_PERICENTER":216.6984,"MEAN_ANOMALY":143.3966,"EPHEMERIS_TYPE":0,"CLASSIFICATION_TYPE":"U","NORAD_CAT_ID":55109,"ELEMENT_SET_NO":999,"REV_AT_EPOCH":12936,"BSTAR":0.00041835119,"MEAN_MOTION_DOT":0.0001093,"MEAN_MOTION_DDOT":0},{"OBJECT_NAME":"STARLINK-31308","OBJECT_ID":"2024-044B","EPOCH":"2026-03-09T00:19:45.718176","MEAN_MOTION":15.2756777,"ECCENTRICITY":0.00014824,"INCLINATION":43.0032,"RA_OF_ASC_NODE":64.0106,"ARG_OF_PERICENTER":280.6696,"MEAN_ANOMALY":79.3989,"EPHEMERIS_TYPE":0,"CLASSIFICATION_TYPE":"U","NORAD_CAT_ID":59153,"ELEMENT_SET_NO":999,"REV_AT_EPOCH":11404,"BSTAR":3.592067e-5,"MEAN_MOTION_DOT":7.26e-6,"MEAN_MOTION_DDOT":0}]
